start=new Date('2022-10-13T00:00:00.000Z').valueOf();
sats=[{"LAUNCH_DATE":"2022-01-19","SEMIMAJOR_AXIS":"6917.923","PERIAPSIS":"538.687","MEAN_MOTION":"15.08826221","ARG_OF_PERICENTER":"53.0844","OBJECT_NAME":"STARLINK-3389","NORAD_CAT_ID":"51124","EPHEMERIS_TYPE":"0","RA_OF_ASC_NODE":"122.6954","MEAN_MOTION_DDOT":"0.0000000000000","OBJECT_ID":"2022-005W","TLE_LINE1":"1 51124U 22005W   22285.90461177 -.00002118  00000-0 -11505-3 0  9995","RCS_SIZE":"LARGE","MEAN_ANOMALY":"307.0294","MEAN_ELEMENT_THEORY":"SGP4","REF_FRAME":"TEME","EPOCH":"2022-10-12T21:42:38.456928","OBJECT_TYPE":"PAYLOAD","GP_ID":"214923794","FILE":"3606891","COUNTRY_CODE":"US","APOAPSIS":"540.888","DECAY_DATE":null,"PERIOD":"95.438","MEAN_MOTION_DOT":"-0.00002118","CENTER_NAME":"EARTH","INCLINATION":"53.2157","REV_AT_EPOCH":"4097","TIME_SYSTEM":"UTC","ECCENTRICITY":"0.00015910","SITE":"AFETR","BSTAR":"-0.00011505000000","TLE_LINE2":"2 51124  53.2157 122.6954 0001591  53.0844 307.0294 15.08826221 40977","ELEMENT_SET_NO":"999","CLASSIFICATION_TYPE":"U"},{"MEAN_ELEMENT_THEORY":"SGP4","MEAN_ANOMALY":"313.5063","RCS_SIZE":"LARGE","TLE_LINE1":"1 51125U 22005X   22285.82733372  .00002119  00000-0  15117-3 0  9998","OBJECT_ID":"2022-005X","MEAN_MOTION_DDOT":"0.0000000000000","GP_ID":"214924035","OBJECT_TYPE":"PAYLOAD","EPOCH":"2022-10-12T19:51:21.633408","REF_FRAME":"TEME","MEAN_MOTION":"15.08839461","PERIAPSIS":"538.411","SEMIMAJOR_AXIS":"6917.882","LAUNCH_DATE":"2022-01-19","RA_OF_ASC_NODE":"123.0489","EPHEMERIS_TYPE":"0","NORAD_CAT_ID":"51125","OBJECT_NAME":"STARLINK-3387","ARG_OF_PERICENTER":"46.6090","SITE":"AFETR","TIME_SYSTEM":"UTC","ECCENTRICITY":"0.00019310","REV_AT_EPOCH":"4094","INCLINATION":"53.2165","CLASSIFICATION_TYPE":"U","ELEMENT_SET_NO":"999","TLE_LINE2":"2 51125  53.2165 123.0489 0001931  46.6090 313.5063 15.08839461 40947","BSTAR":"0.00015117000000","DECAY_DATE":null,"APOAPSIS":"541.083","COUNTRY_CODE":"US","FILE":"3606891","CENTER_NAME":"EARTH","MEAN_MOTION_DOT":"0.00002119","PERIOD":"95.438"},{"MEAN_ELEMENT_THEORY":"SGP4","MEAN_ANOMALY":"307.9451","RCS_SIZE":"LARGE","OBJECT_ID":"2022-005Y","TLE_LINE1":"1 51126U 22005Y   22285.70221195  .00001390  00000-0  10545-3 0  9991","MEAN_MOTION_DDOT":"0.0000000000000","GP_ID":"214922299","OBJECT_TYPE":"PAYLOAD","EPOCH":"2022-10-12T16:51:11.112480","REF_FRAME":"TEME","MEAN_MOTION":"15.08835779","PERIAPSIS":"538.353","SEMIMAJOR_AXIS":"6917.893","LAUNCH_DATE":"2022-01-19","RA_OF_ASC_NODE":"123.6056","EPHEMERIS_TYPE":"0","NORAD_CAT_ID":"51126","OBJECT_NAME":"STARLINK-3386","ARG_OF_PERICENTER":"52.1724","SITE":"AFETR","TIME_SYSTEM":"UTC","ECCENTRICITY":"0.00020310","REV_AT_EPOCH":"4094","INCLINATION":"53.2153","CLASSIFICATION_TYPE":"U","ELEMENT_SET_NO":"999","BSTAR":"0.00010545000000","TLE_LINE2":"2 51126  53.2153 123.6056 0002031  52.1724 307.9451 15.08835779 40945","DECAY_DATE":null,"APOAPSIS":"541.163","COUNTRY_CODE":"US","FILE":"3606891","CENTER_NAME":"EARTH","MEAN_MOTION_DOT":"0.00001390","PERIOD":"95.438"},{"INCLINATION":"53.2161","REV_AT_EPOCH":"4091","TIME_SYSTEM":"UTC","ECCENTRICITY":"0.00018180","SITE":"AFETR","BSTAR":"0.00004550900000","TLE_LINE2":"2 51127  53.2161 124.2198 0001818  46.2374 313.8769 15.08834790 40913","ELEMENT_SET_NO":"999","CLASSIFICATION_TYPE":"U","FILE":"3606148","COUNTRY_CODE":"US","APOAPSIS":"541.019","DECAY_DATE":null,"PERIOD":"95.438","MEAN_MOTION_DOT":"0.00000436","CENTER_NAME":"EARTH","MEAN_MOTION_DDOT":"0.0000000000000","OBJECT_ID":"2022-005Z","TLE_LINE1":"1 51127U 22005Z   22285.56605174  .00000436  00000-0  45509-4 0  9998","RCS_SIZE":"LARGE","MEAN_ANOMALY":"313.8769","MEAN_ELEMENT_THEORY":"SGP4","REF_FRAME":"TEME","EPOCH":"2022-10-12T13:35:06.870336","OBJECT_TYPE":"PAYLOAD","GP_ID":"214882407","LAUNCH_DATE":"2022-01-19","SEMIMAJOR_AXIS":"6917.896","PERIAPSIS":"538.504","MEAN_MOTION":"15.08834790","ARG_OF_PERICENTER":"46.2374","OBJECT_NAME":"STARLINK-3370","NORAD_CAT_ID":"51127","EPHEMERIS_TYPE":"0","RA_OF_ASC_NODE":"124.2198"},{"REF_FRAME":"TEME","EPOCH":"2022-10-12T16:19:23.399616","OBJECT_TYPE":"PAYLOAD","GP_ID":"214923294","MEAN_MOTION_DDOT":"0.0000000000000","TLE_LINE1":"1 51128U 22005AA  22285.68013194  .00000913  00000-0  75425-4 0  9997","OBJECT_ID":"2022-005AA","RCS_SIZE":"LARGE","MEAN_ANOMALY":"305.5596","MEAN_ELEMENT_THEORY":"SGP4","ARG_OF_PERICENTER":"54.5561","OBJECT_NAME":"STARLINK-3400","NORAD_CAT_ID":"51128","EPHEMERIS_TYPE":"0","RA_OF_ASC_NODE":"123.7123","LAUNCH_DATE":"2022-01-19","SEMIMAJOR_AXIS":"6917.880","PERIAPSIS":"538.525","MEAN_MOTION":"15.08840258","TLE_LINE2":"2 51128  53.2159 123.7123 0001763  54.5561 305.5596 15.08840258 40925","BSTAR":"0.00007542500000","ELEMENT_SET_NO":"999","CLASSIFICATION_TYPE":"U","INCLINATION":"53.2159","REV_AT_EPOCH":"4092","TIME_SYSTEM":"UTC","ECCENTRICITY":"0.00017630","SITE":"AFETR","PERIOD":"95.438","MEAN_MOTION_DOT":"0.00000913","CENTER_NAME":"EARTH","FILE":"3606891","COUNTRY_CODE":"US","APOAPSIS":"540.964","DECAY_DATE":null},{"ELEMENT_SET_NO":"999","CLASSIFICATION_TYPE":"U","TLE_LINE2":"2 51129  53.2155 123.8837 0002041  41.5626 318.5521 15.08818751 40928","BSTAR":"0.00010630000000","TIME_SYSTEM":"UTC","ECCENTRICITY":"0.00020410","SITE":"AFETR","INCLINATION":"53.2155","REV_AT_EPOCH":"4092","CENTER_NAME":"EARTH","PERIOD":"95.439","MEAN_MOTION_DOT":"0.00001403","APOAPSIS":"541.222","DECAY_DATE":null,"FILE":"3606891","COUNTRY_CODE":"US","OBJECT_TYPE":"PAYLOAD","GP_ID":"214923535","REF_FRAME":"TEME","EPOCH":"2022-10-12T15:22:29.542944","MEAN_ANOMALY":"318.5521","MEAN_ELEMENT_THEORY":"SGP4","MEAN_MOTION_DDOT":"0.0000000000000","TLE_LINE1":"1 51129U 22005AB  22285.64061971  .00001403  00000-0  10630-3 0  9991","OBJECT_ID":"2022-005AB","RCS_SIZE":"LARGE","NORAD_CAT_ID":"51129","EPHEMERIS_TYPE":"0","RA_OF_ASC_NODE":"123.8837","ARG_OF_PERICENTER":"41.5626","OBJECT_NAME":"STARLINK-3396","MEAN_MOTION":"15.08818751","LAUNCH_DATE":"2022-01-19","SEMIMAJOR_AXIS":"6917.945","PERIAPSIS":"538.398"},{"MEAN_ELEMENT_THEORY":"SGP4","MEAN_ANOMALY":"312.5115","TLE_LINE1":"1 51130U 22005AC  22285.82366298  .00006813  00000-0  44568-3 0  9990","OBJECT_ID":"2022-005AC","RCS_SIZE":"LARGE","MEAN_MOTION_DDOT":"0.0000000000000","OBJECT_TYPE":"PAYLOAD","GP_ID":"214922800","EPOCH":"2022-10-12T19:46:04.481472","REF_FRAME":"TEME","MEAN_MOTION":"15.08842472","SEMIMAJOR_AXIS":"6917.873","PERIAPSIS":"538.303","LAUNCH_DATE":"2022-01-19","RA_OF_ASC_NODE":"123.0644","NORAD_CAT_ID":"51130","EPHEMERIS_TYPE":"0","ARG_OF_PERICENTER":"47.6052","OBJECT_NAME":"STARLINK-3395","SITE":"AFETR","TIME_SYSTEM":"UTC","ECCENTRICITY":"0.00020740","REV_AT_EPOCH":"4094","INCLINATION":"53.2160","CLASSIFICATION_TYPE":"U","ELEMENT_SET_NO":"999","TLE_LINE2":"2 51130  53.2160 123.0644 0002074  47.6052 312.5115 15.08842472 40942","BSTAR":"0.00044568000000","DECAY_DATE":null,"APOAPSIS":"541.173","COUNTRY_CODE":"US","FILE":"3606891","CENTER_NAME":"EARTH","MEAN_MOTION_DOT":"0.00006813","PERIOD":"95.437"},{"INCLINATION":"53.2163","REV_AT_EPOCH":"4094","ECCENTRICITY":"0.00021010","TIME_SYSTEM":"UTC","SITE":"AFETR","BSTAR":"0.00002989200000","TLE_LINE2":"2 51131  53.2163 123.0990 0002101  44.2276 315.8884 15.08828223 40949","ELEMENT_SET_NO":"999","CLASSIFICATION_TYPE":"U","FILE":"3606891","COUNTRY_CODE":"US","APOAPSIS":"541.235","DECAY_DATE":null,"PERIOD":"95.438","MEAN_MOTION_DOT":"0.00000187","CENTER_NAME":"EARTH","MEAN_MOTION_DDOT":"0.0000000000000","OBJECT_ID":"2022-005AD","TLE_LINE1":"1 51131U 22005AD  22285.81630528  .00000187  00000-0  29892-4 0  9992","RCS_SIZE":"LARGE","MEAN_ANOMALY":"315.8884","MEAN_ELEMENT_THEORY":"SGP4","REF_FRAME":"TEME","EPOCH":"2022-10-12T19:35:28.776192","OBJECT_TYPE":"PAYLOAD","GP_ID":"214922549","LAUNCH_DATE":"2022-01-19","SEMIMAJOR_AXIS":"6917.916","PERIAPSIS":"538.328","MEAN_MOTION":"15.08828223","ARG_OF_PERICENTER":"44.2276","OBJECT_NAME":"STARLINK-3388","NORAD_CAT_ID":"51131","EPHEMERIS_TYPE":"0","RA_OF_ASC_NODE":"123.0990"},{"MEAN_MOTION_DOT":"0.00003097","PERIOD":"95.438","CENTER_NAME":"EARTH","COUNTRY_CODE":"US","FILE":"3606891","DECAY_DATE":null,"APOAPSIS":"541.236","BSTAR":"0.00021264000000","TLE_LINE2":"2 51132  53.2143 123.6784 0002147  59.9630 300.1575 15.08838338 40922","CLASSIFICATION_TYPE":"U","ELEMENT_SET_NO":"999","REV_AT_EPOCH":"4092","INCLINATION":"53.2143","SITE":"AFETR","ECCENTRICITY":"0.00021470","TIME_SYSTEM":"UTC","ARG_OF_PERICENTER":"59.9630","OBJECT_NAME":"STARLINK-3393","RA_OF_ASC_NODE":"123.6784","NORAD_CAT_ID":"51132","EPHEMERIS_TYPE":"0","SEMIMAJOR_AXIS":"6917.885","PERIAPSIS":"538.265","LAUNCH_DATE":"2022-01-19","MEAN_MOTION":"15.08838338","EPOCH":"2022-10-12T16:29:59.861760","REF_FRAME":"TEME","OBJECT_TYPE":"PAYLOAD","GP_ID":"214923795","TLE_LINE1":"1 51132U 22005AE  22285.68749840  .00003097  00000-0  21264-3 0  9993","OBJECT_ID":"2022-005AE","RCS_SIZE":"LARGE","MEAN_MOTION_DDOT":"0.0000000000000","MEAN_ELEMENT_THEORY":"SGP4","MEAN_ANOMALY":"300.1575"},{"LAUNCH_DATE":"2022-01-19","PERIAPSIS":"538.397","SEMIMAJOR_AXIS":"6917.890","MEAN_MOTION":"15.08836909","OBJECT_NAME":"STARLINK-3356","ARG_OF_PERICENTER":"47.3299","EPHEMERIS_TYPE":"0","NORAD_CAT_ID":"51133","RA_OF_ASC_NODE":"123.7239","MEAN_MOTION_DDOT":"0.0000000000000","RCS_SIZE":"LARGE","TLE_LINE1":"1 51133U 22005AF  22285.67645667  .00001219  00000-0  94683-4 0  9995","OBJECT_ID":"2022-005AF","MEAN_ANOMALY":"312.7859","MEAN_ELEMENT_THEORY":"SGP4","REF_FRAME":"TEME","EPOCH":"2022-10-12T16:14:05.856288","GP_ID":"214924036","OBJECT_TYPE":"PAYLOAD","FILE":"3606891","COUNTRY_CODE":"US","APOAPSIS":"541.113","DECAY_DATE":null,"PERIOD":"95.438","MEAN_MOTION_DOT":"0.00001219","CENTER_NAME":"EARTH","INCLINATION":"53.2162","REV_AT_EPOCH":"4092","ECCENTRICITY":"0.00019630","TIME_SYSTEM":"UTC","SITE":"AFETR","BSTAR":"0.00009468300000","TLE_LINE2":"2 51133  53.2162 123.7239 0001963  47.3299 312.7859 15.08836909 40923","ELEMENT_SET_NO":"999","CLASSIFICATION_TYPE":"U"}];
